UNKNOWN                 
1 87590U          26069.33577724  .00000700  00000+0  41613-3 0  9994
2 87590  98.7762 109.4265 0027043  38.6371  21.7518 14.10455376166598
UNKNOWN                 
1 87616U          26070.75092306  .00001427  00000+0  49919-2 0  9992
2 87616  66.0384 333.5322 0627439 100.4375 299.7261 12.46996924547339
UNKNOWN                 
1 87624U          26071.32593993  .00008663  00000+0  13137-2 0  9995
2 87624  98.6891  19.5841 0095439 329.1649  30.3970 14.71316140593447
UNKNOWN                 
1 87672U          26070.94593621  .00001991  00000+0  80352-3 0  9994
2 87672  70.8591 173.8717 0056219 138.6058 221.9352 14.28304586637191
UNKNOWN                 
1 87681U          26069.89545986  .00001256  00000+0  13654-2 0  9991
2 87681  66.7350 249.8347 0149988 101.8059 259.9876 13.71333714613929
UNKNOWN                 
1 87690U          26068.43797963  .00005044  00000+0  73444-3 0  9997
2 87690  65.7904 128.3867 0581998   3.0119 357.4216 14.01503823619520
UNKNOWN                 
1 87706U          26070.03133919  .00003443  00000+0  59977-3 0  9995
2 87706  98.6765 263.4205 0103388 354.3553 158.4317 14.65325172591442
UNKNOWN                 
1 87725U          26066.72300701  .00097492  00000+0  60116-2 0  9995
2 87725  82.8696 177.6495 0009057 167.3062 192.8398 15.09455608646688
UNKNOWN                 
1 87730U          26061.59039556  .00000095  00000+0  83400-4 0  9994
2 87730  82.9487 175.0298 0031038 139.8560 220.4897 13.74520605596302
UNKNOWN                 
1 87737U          26069.40855450  .00000035  00000+0  82143-4 0  9995
2 87737  99.3657 304.2647 0132688 321.4732  37.7002 13.72357518615888
UNKNOWN                 
1 87764U          26069.66282826  .00009248  00000+0  15031-2 0  9999
2 87764  65.6666 280.1329 0359432  30.6972  29.7106 14.36583802631743
UNKNOWN                 
1 87771U          26068.35265996  .00000101  00000+0  35572-3 0  9993
2 87771 100.7430 271.3979 0119624 165.8522 194.5989 13.19542552546510
