CCSDS_OMM_VERS = 2.0
CREATION_DATE  = 
ORIGINATOR     = 

OBJECT_NAME    = UNKNOWN
OBJECT_ID      = 
CENTER_NAME    = EARTH
REF_FRAME      = TEME
TIME_SYSTEM    = UTC
MEAN_ELEMENT_THEORY = SGP/SGP4

EPOCH          = 2026-03-10T08:03:31.153536
MEAN_MOTION    = 14.10455376
ECCENTRICITY   = .0027043
INCLINATION    = 98.7762
RA_OF_ASC_NODE = 109.4265
ARG_OF_PERICENTER = 38.6371
MEAN_ANOMALY   = 21.7518

EPHEMERIS_TYPE = 0
CLASSIFICATION_TYPE = U
NORAD_CAT_ID   = 87590
ELEMENT_SET_NO = 999
REV_AT_EPOCH   = 16659
BSTAR          = .41613E-3
MEAN_MOTION_DOT = .7E-5
MEAN_MOTION_DDOT = 0

CCSDS_OMM_VERS = 2.0
CREATION_DATE  = 
ORIGINATOR     = 

OBJECT_NAME    = UNKNOWN
OBJECT_ID      = 
CENTER_NAME    = EARTH
REF_FRAME      = TEME
TIME_SYSTEM    = UTC
MEAN_ELEMENT_THEORY = SGP/SGP4

EPOCH          = 2026-03-11T18:01:19.752384
MEAN_MOTION    = 12.46996924
ECCENTRICITY   = .0627439
INCLINATION    = 66.0384
RA_OF_ASC_NODE = 333.5322
ARG_OF_PERICENTER = 100.4375
MEAN_ANOMALY   = 299.7261

EPHEMERIS_TYPE = 0
CLASSIFICATION_TYPE = U
NORAD_CAT_ID   = 87616
ELEMENT_SET_NO = 999
REV_AT_EPOCH   = 54733
BSTAR          = .49919E-2
MEAN_MOTION_DOT = .1427E-4
MEAN_MOTION_DDOT = 0

CCSDS_OMM_VERS = 2.0
CREATION_DATE  = 
ORIGINATOR     = 

OBJECT_NAME    = UNKNOWN
OBJECT_ID      = 
CENTER_NAME    = EARTH
REF_FRAME      = TEME
TIME_SYSTEM    = UTC
MEAN_ELEMENT_THEORY = SGP/SGP4

EPOCH          = 2026-03-12T07:49:21.209952
MEAN_MOTION    = 14.71316140
ECCENTRICITY   = .0095439
INCLINATION    = 98.6891
RA_OF_ASC_NODE = 19.5841
ARG_OF_PERICENTER = 329.1649
MEAN_ANOMALY   = 30.3970

EPHEMERIS_TYPE = 0
CLASSIFICATION_TYPE = U
NORAD_CAT_ID   = 87624
ELEMENT_SET_NO = 999
REV_AT_EPOCH   = 59344
BSTAR          = .13137E-2
MEAN_MOTION_DOT = .8663E-4
MEAN_MOTION_DDOT = 0

CCSDS_OMM_VERS = 2.0
CREATION_DATE  = 
ORIGINATOR     = 

OBJECT_NAME    = UNKNOWN
OBJECT_ID      = 
CENTER_NAME    = EARTH
REF_FRAME      = TEME
TIME_SYSTEM    = UTC
MEAN_ELEMENT_THEORY = SGP/SGP4

EPOCH          = 2026-03-11T22:42:08.888544
MEAN_MOTION    = 14.28304586
ECCENTRICITY   = .0056219
INCLINATION    = 70.8591
RA_OF_ASC_NODE = 173.8717
ARG_OF_PERICENTER = 138.6058
MEAN_ANOMALY   = 221.9352

EPHEMERIS_TYPE = 0
CLASSIFICATION_TYPE = U
NORAD_CAT_ID   = 87672
ELEMENT_SET_NO = 999
REV_AT_EPOCH   = 63719
BSTAR          = .80352E-3
MEAN_MOTION_DOT = .1991E-4
MEAN_MOTION_DDOT = 0

CCSDS_OMM_VERS = 2.0
CREATION_DATE  = 
ORIGINATOR     = 

OBJECT_NAME    = UNKNOWN
OBJECT_ID      = 
CENTER_NAME    = EARTH
REF_FRAME      = TEME
TIME_SYSTEM    = UTC
MEAN_ELEMENT_THEORY = SGP/SGP4

EPOCH          = 2026-03-10T21:29:27.731904
MEAN_MOTION    = 13.71333714
ECCENTRICITY   = .0149988
INCLINATION    = 66.7350
RA_OF_ASC_NODE = 249.8347
ARG_OF_PERICENTER = 101.8059
MEAN_ANOMALY   = 259.9876

EPHEMERIS_TYPE = 0
CLASSIFICATION_TYPE = U
NORAD_CAT_ID   = 87681
ELEMENT_SET_NO = 999
REV_AT_EPOCH   = 61392
BSTAR          = .13654E-2
MEAN_MOTION_DOT = .1256E-4
MEAN_MOTION_DDOT = 0

CCSDS_OMM_VERS = 2.0
CREATION_DATE  = 
ORIGINATOR     = 

OBJECT_NAME    = UNKNOWN
OBJECT_ID      = 
CENTER_NAME    = EARTH
REF_FRAME      = TEME
TIME_SYSTEM    = UTC
MEAN_ELEMENT_THEORY = SGP/SGP4

EPOCH          = 2026-03-09T10:30:41.440032
MEAN_MOTION    = 14.01503823
ECCENTRICITY   = .0581998
INCLINATION    = 65.7904
RA_OF_ASC_NODE = 128.3867
ARG_OF_PERICENTER = 3.0119
MEAN_ANOMALY   = 357.4216

EPHEMERIS_TYPE = 0
CLASSIFICATION_TYPE = U
NORAD_CAT_ID   = 87690
ELEMENT_SET_NO = 999
REV_AT_EPOCH   = 61952
BSTAR          = .73444E-3
MEAN_MOTION_DOT = .5044E-4
MEAN_MOTION_DDOT = 0

CCSDS_OMM_VERS = 2.0
CREATION_DATE  = 
ORIGINATOR     = 

OBJECT_NAME    = UNKNOWN
OBJECT_ID      = 
CENTER_NAME    = EARTH
REF_FRAME      = TEME
TIME_SYSTEM    = UTC
MEAN_ELEMENT_THEORY = SGP/SGP4

EPOCH          = 2026-03-11T00:45:07.706016
MEAN_MOTION    = 14.65325172
ECCENTRICITY   = .0103388
INCLINATION    = 98.6765
RA_OF_ASC_NODE = 263.4205
ARG_OF_PERICENTER = 354.3553
MEAN_ANOMALY   = 158.4317

EPHEMERIS_TYPE = 0
CLASSIFICATION_TYPE = U
NORAD_CAT_ID   = 87706
ELEMENT_SET_NO = 999
REV_AT_EPOCH   = 59144
BSTAR          = .59977E-3
MEAN_MOTION_DOT = .3443E-4
MEAN_MOTION_DDOT = 0

CCSDS_OMM_VERS = 2.0
CREATION_DATE  = 
ORIGINATOR     = 

OBJECT_NAME    = UNKNOWN
OBJECT_ID      = 
CENTER_NAME    = EARTH
REF_FRAME      = TEME
TIME_SYSTEM    = UTC
MEAN_ELEMENT_THEORY = SGP/SGP4

EPOCH          = 2026-03-07T17:21:07.805664
MEAN_MOTION    = 15.09455608
ECCENTRICITY   = .0009057
INCLINATION    = 82.8696
RA_OF_ASC_NODE = 177.6495
ARG_OF_PERICENTER = 167.3062
MEAN_ANOMALY   = 192.8398

EPHEMERIS_TYPE = 0
CLASSIFICATION_TYPE = U
NORAD_CAT_ID   = 87725
ELEMENT_SET_NO = 999
REV_AT_EPOCH   = 64668
BSTAR          = .60116E-2
MEAN_MOTION_DOT = .97492E-3
MEAN_MOTION_DDOT = 0

CCSDS_OMM_VERS = 2.0
CREATION_DATE  = 
ORIGINATOR     = 

OBJECT_NAME    = UNKNOWN
OBJECT_ID      = 
CENTER_NAME    = EARTH
REF_FRAME      = TEME
TIME_SYSTEM    = UTC
MEAN_ELEMENT_THEORY = SGP/SGP4

EPOCH          = 2026-03-02T14:10:10.176384
MEAN_MOTION    = 13.74520605
ECCENTRICITY   = .0031038
INCLINATION    = 82.9487
RA_OF_ASC_NODE = 175.0298
ARG_OF_PERICENTER = 139.8560
MEAN_ANOMALY   = 220.4897

EPHEMERIS_TYPE = 0
CLASSIFICATION_TYPE = U
NORAD_CAT_ID   = 87730
ELEMENT_SET_NO = 999
REV_AT_EPOCH   = 59630
BSTAR          = .834E-4
MEAN_MOTION_DOT = .95E-6
MEAN_MOTION_DDOT = 0

CCSDS_OMM_VERS = 2.0
CREATION_DATE  = 
ORIGINATOR     = 

OBJECT_NAME    = UNKNOWN
OBJECT_ID      = 
CENTER_NAME    = EARTH
REF_FRAME      = TEME
TIME_SYSTEM    = UTC
MEAN_ELEMENT_THEORY = SGP/SGP4

EPOCH          = 2026-03-10T09:48:19.108800
MEAN_MOTION    = 13.72357518
ECCENTRICITY   = .0132688
INCLINATION    = 99.3657
RA_OF_ASC_NODE = 304.2647
ARG_OF_PERICENTER = 321.4732
MEAN_ANOMALY   = 37.7002

EPHEMERIS_TYPE = 0
CLASSIFICATION_TYPE = U
NORAD_CAT_ID   = 87737
ELEMENT_SET_NO = 999
REV_AT_EPOCH   = 61588
BSTAR          = .82143E-4
MEAN_MOTION_DOT = .35E-6
MEAN_MOTION_DDOT = 0

CCSDS_OMM_VERS = 2.0
CREATION_DATE  = 
ORIGINATOR     = 

OBJECT_NAME    = UNKNOWN
OBJECT_ID      = 
CENTER_NAME    = EARTH
REF_FRAME      = TEME
TIME_SYSTEM    = UTC
MEAN_ELEMENT_THEORY = SGP/SGP4

EPOCH          = 2026-03-10T15:54:28.361664
MEAN_MOTION    = 14.36583802
ECCENTRICITY   = .0359432
INCLINATION    = 65.6666
RA_OF_ASC_NODE = 280.1329
ARG_OF_PERICENTER = 30.6972
MEAN_ANOMALY   = 29.7106

EPHEMERIS_TYPE = 0
CLASSIFICATION_TYPE = U
NORAD_CAT_ID   = 87764
ELEMENT_SET_NO = 999
REV_AT_EPOCH   = 63174
BSTAR          = .15031E-2
MEAN_MOTION_DOT = .9248E-4
MEAN_MOTION_DDOT = 0

CCSDS_OMM_VERS = 2.0
CREATION_DATE  = 
ORIGINATOR     = 

OBJECT_NAME    = UNKNOWN
OBJECT_ID      = 
CENTER_NAME    = EARTH
REF_FRAME      = TEME
TIME_SYSTEM    = UTC
MEAN_ELEMENT_THEORY = SGP/SGP4

EPOCH          = 2026-03-09T08:27:49.820544
MEAN_MOTION    = 13.19542552
ECCENTRICITY   = .0119624
INCLINATION    = 100.7430
RA_OF_ASC_NODE = 271.3979
ARG_OF_PERICENTER = 165.8522
MEAN_ANOMALY   = 194.5989

EPHEMERIS_TYPE = 0
CLASSIFICATION_TYPE = U
NORAD_CAT_ID   = 87771
ELEMENT_SET_NO = 999
REV_AT_EPOCH   = 54651
BSTAR          = .35572E-3
MEAN_MOTION_DOT = .101E-5
MEAN_MOTION_DDOT = 0

